[{"OBJECT_NAME":"JILIN-1 GAOFEN 3D29","OBJECT_ID":"2022-048D","EPOCH":"2026-03-09T22:32:03.430176","MEAN_MOTION":15.58876376,"ECCENTRICITY":0.00011818,"INCLINATION":97.5625,"RA_OF_ASC_NODE":175.7079,"ARG_OF_PERICENTER":38.4318,"MEAN_ANOMALY":321.7021,"EPHEMERIS_TYPE":0,"CLASSIFICATION_TYPE":"U","NORAD_CAT_ID":52446,"ELEMENT_SET_NO":999,"REV_AT_EPOCH":21396,"BSTAR":0.0009895571,"MEAN_MOTION_DOT":0.000771,"MEAN_MOTION_DDOT":0},{"OBJECT_NAME":"STARLINK-36625","OBJECT_ID":"2026-022W","EPOCH":"2026-03-09T22:00:01.999584","MEAN_MOTION":15.72387083,"ECCENTRICITY":0.00018037,"INCLINATION":97.2852,"RA_OF_ASC_NODE":102.9474,"ARG_OF_PERICENTER":69.2323,"MEAN_ANOMALY":67.0001,"EPHEMERIS_TYPE":0,"CLASSIFICATION_TYPE":"U","NORAD_CAT_ID":67668,"ELEMENT_SET_NO":999,"REV_AT_EPOCH":608,"BSTAR":-0.016379487,"MEAN_MOTION_DOT":-0.01887596,"MEAN_MOTION_DDOT":0}]
